2022-098D               
1 53447U 22098D   22241.56518098  .00001804  00000+0  11776-3 0  9994
2 53447  97.5267 337.5453 0010906 188.0215 297.6332 15.09072158  2903
2022-098E               
1 53448U 22098E   22241.56298411  .00001886  00000+0  12230-3 0  9995
2 53448  97.5340 337.5681 0011444 194.2110 292.2584 15.09255765  2907
2022-098F               
1 53449U 22098F   22241.56176169  .00001954  00000+0  12628-3 0  9998
2 53449  97.5293 337.5549 0011055 195.3281 290.6492 15.09345156  2901
2022-098G               
1 53450U 22098G   22241.55912079  .00002033  00000+0  13058-3 0  9994
2 53450  97.5340 337.5726 0008423 193.6287 291.9921 15.09547187  2904
2022-098H               
1 53451U 22098H   22241.55813363  .00002033  00000+0  13030-3 0  9991
2 53451  97.5385 337.5862 0009070 197.7955 287.9060 15.09625389  2901
2022-098J               
1 53452U 22098J   22241.55694847  .00002119  00000+0  13529-3 0  9994
2 53452  97.5289 337.5613 0009122 199.6368 286.0857 15.09719797  2907
2022-098K               
1 53453U 22098K   22241.55592520  .00002143  00000+0  13643-3 0  9994
2 53453  97.5338 337.5762 0009723 203.0896 282.7771 15.09801783  2906
2022-098L               
1 53454U 22098L   22241.55355488  .00003259  00000+0  20414-3 0  9998
2 53454  97.5288 337.5646 0011556 210.2202 275.8739 15.10017019  2900
